STARLINK-34385          
1 64352U 25126J   26187.15566719 -.00004958  00000+0 -40807-3 0  9999
2 64352  70.0007  95.8960 0002951 266.9913  93.0909 14.98324906 58421
STARLINK-34431          
1 64353U 25126K   26187.85263571  .00003184  00000+0  27464-3 0  9999
2 64353  70.0000  93.9145 0002779 278.2990  81.7853 14.98313596 58535
STARLINK-34473          
1 64354U 25126L   26187.13061890 -.00005526  00000+0 -45589-3 0  9993
2 64354  70.0003  95.8089 0003452 269.5937  90.4827 14.98310854 58420
STARLINK-34270          
1 64355U 25126M   26187.20155927  .00008002  00000+0  67802-3 0  9999
2 64355  70.0001  95.6520 0003086 276.4517  83.6291 14.98308722 59635
STARLINK-34397          
1 64356U 25126N   26187.15984060 -.00000351  00000+0 -21646-4 0  9990
2 64356  70.0004  95.9071 0003324 265.9238  94.1541 14.98301052 58421
STARLINK-34454          
1 64357U 25126P   26187.16418136 -.00005123  00000+0 -42203-3 0  9991
2 64357  70.0009  95.9225 0002788 269.2370  90.8469 14.98312816 58427
STARLINK-34436          
1 64358U 25126Q   26187.17667344 -.00006092  00000+0 -50342-3 0  9999
2 64358  70.0000  95.5613 0003093 257.3300 102.7513 14.98314596 58438
STARLINK-34291          
1 64359U 25126R   26187.86098317 -.00001327  00000+0 -10350-3 0  9995
2 64359  69.9993  93.9341 0002875 270.8381  89.2448 14.98308643 58536
STARLINK-34458          
1 64360U 25126S   26187.13496067 -.00006086  00000+0 -50297-3 0  9992
2 64360  70.0004  95.8180 0002647 266.3288  93.7569 14.98310862 58427
STARLINK-34243          
1 64361U 25126T   26187.73982147  .00005963  00000+0  50741-3 0  9993
2 64361  70.0008  94.3215 0002804 281.2506  78.8337 14.98308534 58519
STARLINK-34335          
1 64362U 25126U   26187.84829536  .00004024  00000+0  34497-3 0  9995
2 64362  70.0002  93.8970 0002773 269.8065  90.2776 14.98314271 58535
STARLINK-34408          
1 64363U 25126V   26187.17233652 -.00005263  00000+0 -43379-3 0  9997
2 64363  70.0006  95.5498 0002408 271.3767  88.7116 14.98314070 58432
STARLINK-34476          
1 64364U 25126W   26187.86081736 -.00001117  00000+0 -85852-4 0  9995
2 64364  69.9992  93.9380 0003275 272.3571  87.7213 14.98309308 58539
STARLINK-34479          
1 64365U 25126X   26187.16818979 -.00002540  00000+0 -20520-3 0  9997
2 64365  70.0003  95.9349 0002903 269.0715  91.0112 14.98317160 58422
STARLINK-34484          
1 64366U 25126Y   26187.17650898 -.00004380  00000+0 -35972-3 0  9994
2 64366  70.0002  95.5611 0002980 266.4743  93.6076 14.98313270 59647
STARLINK-34483          
1 64367U 25126Z   26187.84845791 -.00000010  00000+0  69250-5 0  9990
2 64367  69.9996  93.8912 0002851 260.8383  99.2453 14.98314274 58530
STARLINK-34457          
1 64368U 25126AA  26187.15149617 -.00001807  00000+0 -14375-3 0  9991
2 64368  70.0009  95.8760 0002723 264.6606  95.4243 14.98315043 58428
STARLINK-34444          
1 64369U 25126AB  26187.15583297 -.00004369  00000+0 -35875-3 0  9992
2 64369  70.0005  95.8904 0002878 267.6119  92.4711 14.98313562 58429
STARLINK-11732 [DTC]    
1 64370U 25127A   26187.83335647 -.00203534  00000+0 -16138-2 0  9999
2 64370  43.0002  86.4420 0001493 245.5971 340.4289 15.70956192  5454
STARLINK-11731 [DTC]    
1 64371U 25127B   26187.10997579  .00240080  00000+0  18163-2 0  9993
2 64371  43.0006  91.0240 0001707 270.8859  89.1813 15.70901520 62127
STARLINK-11746 [DTC]    
1 64372U 25127C   26187.65035068  .00225477  00000+0  17032-2 0  9997
2 64372  42.9998  87.3174 0001476 253.1000 106.9706 15.70982519 62211
STARLINK-11748 [DTC]    
1 64373U 25127D   26187.18508581  .00179077  00000+0  13655-2 0  9992
2 64373  43.0009  90.7320 0001896 284.6243  75.4414 15.70904601 62135
STARLINK-11739 [DTC]    
1 64374U 25127E   26187.76158119  .00166127  00000+0  12684-2 0  9998
2 64374  42.9992  86.4221 0001229 254.3739 105.6993 15.70916991 62235
STARLINK-11738 [DTC]    
1 64375U 25127F   26187.75639954  .00133473  00000+0  10228-2 0  9999
2 64375  43.0010  87.2747 0002035 289.7439  70.3209 15.70938417 62220
STARLINK-11745 [DTC]    
1 64376U 25127G   26187.08872990  .00215622  00000+0  16416-2 0  9997
2 64376  42.9991  90.8504 0001413 259.8246 100.2462 15.70826631 62128
STARLINK-11742 [DTC]    
1 64377U 25127H   26187.10466446  .00213693  00000+0  16219-2 0  9993
2 64377  43.0001  90.9782 0001602 264.2748  95.7937 15.70905949 62124
STARLINK-11711 [DTC]    
1 64378U 25127J   26187.83579336  .00188340  00000+0  14321-2 0  9999
2 64378  42.9996  86.1227 0002053 268.4805  91.5828 15.70941976 62356
STARLINK-11743 [DTC]    
1 64379U 25127K   26187.11528150  .00197587  00000+0  15042-2 0  9993
2 64379  43.0002  91.0652 0002145 313.3156  46.7533 15.70883674 62125
STARLINK-11744 [DTC]    
1 64380U 25127L   26187.09935607  .00166505  00000+0  12730-2 0  9998
2 64380  42.9993  90.9340 0001784 273.9255  86.1408 15.70882025 62123
STARLINK-11692 [DTC]    
1 64381U 25127M   26187.14700825  .00185286  00000+0  14119-2 0  9997
2 64381  42.9998  90.4235 0002235 283.3499  76.7119 15.70899461 62243
