OBJECT_NAME,OBJECT_ID,EPOCH,MEAN_MOTION,ECCENTRICITY,INCLINATION,RA_OF_ASC_NODE,ARG_OF_PERICENTER,MEAN_ANOMALY,EPHEMERIS_TYPE,CLASSIFICATION_TYPE,NORAD_CAT_ID,ELEMENT_SET_NO,REV_AT_EPOCH,BSTAR,MEAN_MOTION_DOT,MEAN_MOTION_DDOT
STARLINK-34385,2025-126J,2026-07-06T03:44:09.645216,14.98324906,.00029513,70.0007,95.8960,266.9913,93.0909,0,U,64352,999,5842,-.4080736E-3,-.4958E-4,0
STARLINK-34431,2025-126K,2026-07-06T20:27:47.725344,14.98313596,.0002779,70.0000,93.9145,278.2990,81.7853,0,U,64353,999,5853,.27464E-3,.3184E-4,0
STARLINK-34473,2025-126L,2026-07-06T03:08:05.472960,14.98310854,.0003452,70.0003,95.8089,269.5937,90.4827,0,U,64354,999,5842,-.45589077E-3,-.5526E-4,0
STARLINK-34270,2025-126M,2026-07-06T04:50:14.720928,14.98308722,.0003086,70.0001,95.6520,276.4517,83.6291,0,U,64355,999,5963,.67802135E-3,.8002E-4,0
STARLINK-34397,2025-126N,2026-07-06T03:50:10.227840,14.98301052,.00033245,70.0004,95.9071,265.9238,94.1541,0,U,64356,999,5842,-.21645728E-4,-.351E-5,0
STARLINK-34454,2025-126P,2026-07-06T03:56:25.269504,14.98312816,.00027888,70.0009,95.9225,269.2370,90.8469,0,U,64357,999,5842,-.42203015E-3,-.5123E-4,0
STARLINK-34436,2025-126Q,2026-07-06T04:14:24.585216,14.98314596,.00030935,70.0000,95.5613,257.3300,102.7513,0,U,64358,999,5843,-.50341938E-3,-.6092E-4,0
STARLINK-34291,2025-126R,2026-07-06T20:39:48.945888,14.98308643,.0002875,69.9993,93.9341,270.8381,89.2448,0,U,64359,999,5853,-.1035E-3,-.1327E-4,0
STARLINK-34458,2025-126S,2026-07-06T03:14:20.601888,14.98310862,.00026474,70.0004,95.8180,266.3288,93.7569,0,U,64360,999,5842,-.50297444E-3,-.6086E-4,0
STARLINK-34243,2025-126T,2026-07-06T17:45:20.575008,14.98308534,.0002804,70.0008,94.3215,281.2506,78.8337,0,U,64361,999,5851,.50741E-3,.5963E-4,0
STARLINK-34335,2025-126U,2026-07-06T20:21:32.719104,14.98314271,.0002773,70.0002,93.8970,269.8065,90.2776,0,U,64362,999,5853,.34497E-3,.4024E-4,0
STARLINK-34408,2025-126V,2026-07-06T04:08:09.875328,14.98314070,.00024081,70.0006,95.5498,271.3767,88.7116,0,U,64363,999,5843,-.43378586E-3,-.5263E-4,0
STARLINK-34476,2025-126W,2026-07-06T20:39:34.619904,14.98309308,.0003275,69.9992,93.9380,272.3571,87.7213,0,U,64364,999,5853,-.85852E-4,-.1117E-4,0
STARLINK-34479,2025-126X,2026-07-06T04:02:11.597856,14.98317160,.00029037,70.0003,95.9349,269.0715,91.0112,0,U,64365,999,5842,-.20519827E-3,-.254E-4,0
STARLINK-34484,2025-126Y,2026-07-06T04:14:10.375872,14.98313270,.00029808,70.0002,95.5611,266.4743,93.6076,0,U,64366,999,5964,-.35971503E-3,-.438E-4,0
STARLINK-34483,2025-126Z,2026-07-06T20:21:46.763424,14.98314274,.0002851,69.9996,93.8912,260.8383,99.2453,0,U,64367,999,5853,.6925E-5,-.1E-6,0
STARLINK-34457,2025-126AA,2026-07-06T03:38:09.269088,14.98315043,.00027231,70.0009,95.8760,264.6606,95.4243,0,U,64368,999,5842,-.14375285E-3,-.1807E-4,0
STARLINK-34444,2025-126AB,2026-07-06T03:44:23.968608,14.98313562,.00028783,70.0005,95.8904,267.6119,92.4711,0,U,64369,999,5842,-.35874531E-3,-.4369E-4,0
STARLINK-11732 [DTC],2025-127A,2026-07-06T20:00:01.999008,15.70956192,.0001493,43.0002,86.4420,245.5971,340.4289,0,U,64370,999,545,-.16138E-2,-.203534E-2,0
STARLINK-11731 [DTC],2025-127B,2026-07-06T02:38:21.908256,15.70901520,.00017071,43.0006,91.0240,270.8859,89.1813,0,U,64371,999,6212,.18162674E-2,.24008E-2,0
STARLINK-11746 [DTC],2025-127C,2026-07-06T15:36:30.298752,15.70982519,.0001476,42.9998,87.3174,253.1000,106.9706,0,U,64372,999,6221,.17032E-2,.225477E-2,0
STARLINK-11748 [DTC],2025-127D,2026-07-06T04:26:31.413984,15.70904601,.00018967,43.0009,90.7320,284.6243,75.4414,0,U,64373,999,6213,.13655037E-2,.179077E-2,0
STARLINK-11739 [DTC],2025-127E,2026-07-06T18:16:40.614816,15.70916991,.0001229,42.9992,86.4221,254.3739,105.6993,0,U,64374,999,6223,.12684E-2,.166127E-2,0
STARLINK-11738 [DTC],2025-127F,2026-07-06T18:09:12.920256,15.70938417,.0002035,43.0010,87.2747,289.7439,70.3209,0,U,64375,999,6222,.10228E-2,.133473E-2,0
STARLINK-11745 [DTC],2025-127G,2026-07-06T02:07:46.263360,15.70826631,.00014132,42.9991,90.8504,259.8246,100.2462,0,U,64376,999,6212,.16415849E-2,.215622E-2,0
STARLINK-11742 [DTC],2025-127H,2026-07-06T02:30:43.009344,15.70905949,.00016029,43.0001,90.9782,264.2748,95.7937,0,U,64377,999,6212,.16219028E-2,.213693E-2,0
STARLINK-11711 [DTC],2025-127J,2026-07-06T20:03:32.546304,15.70941976,.0002053,42.9996,86.1227,268.4805,91.5828,0,U,64378,999,6235,.14321E-2,.18834E-2,0
STARLINK-11743 [DTC],2025-127K,2026-07-06T02:46:00.321600,15.70883674,.00021453,43.0002,91.0652,313.3156,46.7533,0,U,64379,999,6212,.15042236E-2,.197587E-2,0
STARLINK-11744 [DTC],2025-127L,2026-07-06T02:23:04.364448,15.70882025,.00017842,42.9993,90.9340,273.9255,86.1408,0,U,64380,999,6212,.127302E-2,.166505E-2,0
STARLINK-11692 [DTC],2025-127M,2026-07-06T03:31:41.512800,15.70899461,.00022353,42.9998,90.4235,283.3499,76.7119,0,U,64381,999,6224,.14119453E-2,.185286E-2,0
